{
"type": "FeatureCollection",
"name": "water_quality_change",
"crs": { "type": "name", "properties": { "name": "urn:ogc:def:crs:OGC:1.3:CRS84" } },
"features": [
{"type":"Feature","properties":{"STATION_NAME":"AI_SchoolHouseCreek_0.65","wqi_2023":72,"wqi_2024":52,"wqi_change":-20,"nearby_outfalls":137,"nearby_unconfirmed":3,"mean_risk_score":24.8},"geometry":{"type":"Point","coordinates":[-122.704153999894999,47.158626998998898]}},
{"type":"Feature","properties":{"STATION_NAME":"CC_CloverCreek_0.39","wqi_2023":67,"wqi_2024":76,"wqi_change":9,"nearby_outfalls":0,"nearby_unconfirmed":0,"mean_risk_score":null},"geometry":{"type":"Point","coordinates":[-122.522871000183997,47.155687998976603]}},
{"type":"Feature","properties":{"STATION_NAME":"CC_CloverCreek_1.84","wqi_2023":21,"wqi_2024":42,"wqi_change":21,"nearby_outfalls":5,"nearby_unconfirmed":0,"mean_risk_score":42.3},"geometry":{"type":"Point","coordinates":[-122.500269999870994,47.143746998955699]}},
{"type":"Feature","properties":{"STATION_NAME":"CC_CloverCreek_10.66","wqi_2023":34,"wqi_2024":29,"wqi_change":-5,"nearby_outfalls":56,"nearby_unconfirmed":4,"mean_risk_score":50.9},"geometry":{"type":"Point","coordinates":[-122.376962361140002,47.104373999098797]}},
{"type":"Feature","properties":{"STATION_NAME":"CC_CloverCreek_4.84","wqi_2023":79,"wqi_2024":66,"wqi_change":-13,"nearby_outfalls":248,"nearby_unconfirmed":1,"mean_risk_score":32.5},"geometry":{"type":"Point","coordinates":[-122.455400000032,47.141339998931997]}},
{"type":"Feature","properties":{"STATION_NAME":"CC_CloverCreek_7.33","wqi_2023":9,"wqi_2024":13,"wqi_change":4,"nearby_outfalls":172,"nearby_unconfirmed":1,"mean_risk_score":42.9},"geometry":{"type":"Point","coordinates":[-122.415251999855002,47.124714999069198]}},
{"type":"Feature","properties":{"STATION_NAME":"CC_CloverCreek_8.31","wqi_2023":30,"wqi_2024":27,"wqi_change":-3,"nearby_outfalls":142,"nearby_unconfirmed":7,"mean_risk_score":44.7},"geometry":{"type":"Point","coordinates":[-122.396214000171,47.1277409990537]}},
{"type":"Feature","properties":{"STATION_NAME":"CC_NorthForkCloverCreek_0.04","wqi_2023":81,"wqi_2024":63,"wqi_change":-18,"nearby_outfalls":410,"nearby_unconfirmed":5,"mean_risk_score":30.3},"geometry":{"type":"Point","coordinates":[-122.429080000173002,47.134377999065002]}},
{"type":"Feature","properties":{"STATION_NAME":"CC_NorthForkCloverCreek_0.99","wqi_2023":81,"wqi_2024":57,"wqi_change":-24,"nearby_outfalls":147,"nearby_unconfirmed":2,"mean_risk_score":39.9},"geometry":{"type":"Point","coordinates":[-122.409684000105997,47.134035999001]}},
{"type":"Feature","properties":{"STATION_NAME":"CC_NorthForkCloverCreek_1.03","wqi_2023":84,"wqi_2024":60,"wqi_change":-24,"nearby_outfalls":141,"nearby_unconfirmed":4,"mean_risk_score":40.5},"geometry":{"type":"Point","coordinates":[-122.409216000186007,47.134373999091601]}},
{"type":"Feature","properties":{"STATION_NAME":"CC_NorthForkCloverCreek_2.09","wqi_2023":28,"wqi_2024":18,"wqi_change":-10,"nearby_outfalls":192,"nearby_unconfirmed":17,"mean_risk_score":59.1},"geometry":{"type":"Point","coordinates":[-122.409725000052006,47.147334998944601]}},
{"type":"Feature","properties":{"STATION_NAME":"CC_SpanawayCreek_2.36","wqi_2023":27,"wqi_2024":36,"wqi_change":9,"nearby_outfalls":341,"nearby_unconfirmed":1,"mean_risk_score":32.4},"geometry":{"type":"Point","coordinates":[-122.446637000164003,47.123026999171401]}},
{"type":"Feature","properties":{"STATION_NAME":"CL_ClarksCreek_0.70","wqi_2023":50,"wqi_2024":63,"wqi_change":13,"nearby_outfalls":10,"nearby_unconfirmed":1,"mean_risk_score":27.8},"geometry":{"type":"Point","coordinates":[-122.340273999868003,47.206213999086501]}},
{"type":"Feature","properties":{"STATION_NAME":"CL_ClearCreek_1.74","wqi_2023":60,"wqi_2024":72,"wqi_change":12,"nearby_outfalls":74,"nearby_unconfirmed":5,"mean_risk_score":21.6},"geometry":{"type":"Point","coordinates":[-122.373929999935001,47.218899998972098]}},
{"type":"Feature","properties":{"STATION_NAME":"CL_DiruCreek_0.59","wqi_2023":65,"wqi_2024":88,"wqi_change":23,"nearby_outfalls":79,"nearby_unconfirmed":1,"mean_risk_score":17.1},"geometry":{"type":"Point","coordinates":[-122.339389999968006,47.1913109191266]}},
{"type":"Feature","properties":{"STATION_NAME":"CL_RodyCreek_0.45","wqi_2023":85,"wqi_2024":87,"wqi_change":2,"nearby_outfalls":75,"nearby_unconfirmed":1,"mean_risk_score":17.3},"geometry":{"type":"Point","coordinates":[-122.346776999873995,47.1961219990229]}},
{"type":"Feature","properties":{"STATION_NAME":"CL_SquallyCreek_0.07","wqi_2023":80,"wqi_2024":78,"wqi_change":-2,"nearby_outfalls":93,"nearby_unconfirmed":6,"mean_risk_score":22.1},"geometry":{"type":"Point","coordinates":[-122.379495999802003,47.220909999006501]}},
{"type":"Feature","properties":{"STATION_NAME":"CL_SwanCreek_0.76","wqi_2023":80,"wqi_2024":91,"wqi_change":11,"nearby_outfalls":65,"nearby_unconfirmed":3,"mean_risk_score":23.4},"geometry":{"type":"Point","coordinates":[-122.39413599996,47.224003999016396]}},
{"type":"Feature","properties":{"STATION_NAME":"CL_SwanCreek_3.95","wqi_2023":56,"wqi_2024":61,"wqi_change":5,"nearby_outfalls":109,"nearby_unconfirmed":7,"mean_risk_score":37.6},"geometry":{"type":"Point","coordinates":[-122.393972999837999,47.184580999117898]}},
{"type":"Feature","properties":{"STATION_NAME":"CL_SwanCreek_5.03","wqi_2023":44,"wqi_2024":45,"wqi_change":1,"nearby_outfalls":85,"nearby_unconfirmed":5,"mean_risk_score":50.7},"geometry":{"type":"Point","coordinates":[-122.393563000037005,47.1700329990462]}},
{"type":"Feature","properties":{"STATION_NAME":"CW_CoplarCreek_0.48","wqi_2023":85,"wqi_2024":93,"wqi_change":8,"nearby_outfalls":4,"nearby_unconfirmed":2,"mean_risk_score":43.2},"geometry":{"type":"Point","coordinates":[-122.169761999960997,47.0780789990702]}},
{"type":"Feature","properties":{"STATION_NAME":"CW_EvansCreek_0.43","wqi_2023":73,"wqi_2024":80,"wqi_change":7,"nearby_outfalls":26,"nearby_unconfirmed":1,"mean_risk_score":11.5},"geometry":{"type":"Point","coordinates":[-122.007346000083999,47.003425999087099]}},
{"type":"Feature","properties":{"STATION_NAME":"CW_FiskeCreek_0.54","wqi_2023":88,"wqi_2024":92,"wqi_change":4,"nearby_outfalls":11,"nearby_unconfirmed":1,"mean_risk_score":19.4},"geometry":{"type":"Point","coordinates":[-122.196059,47.037262998983103]}},
{"type":"Feature","properties":{"STATION_NAME":"CW_KapowsinCreek_0.66","wqi_2023":50,"wqi_2024":56,"wqi_change":6,"nearby_outfalls":9,"nearby_unconfirmed":1,"mean_risk_score":31.8},"geometry":{"type":"Point","coordinates":[-122.210813999975997,47.025291998963901]}},
{"type":"Feature","properties":{"STATION_NAME":"CW_SouthPrairieCreek_1.27","wqi_2023":75,"wqi_2024":82,"wqi_change":7,"nearby_outfalls":13,"nearby_unconfirmed":3,"mean_risk_score":37.1},"geometry":{"type":"Point","coordinates":[-122.145174000137999,47.109202998927799]}},
{"type":"Feature","properties":{"STATION_NAME":"CW_SpiketonCreek_0.01","wqi_2023":69,"wqi_2024":78,"wqi_change":9,"nearby_outfalls":45,"nearby_unconfirmed":5,"mean_risk_score":18.8},"geometry":{"type":"Point","coordinates":[-122.064284999858998,47.138414999055101]}},
{"type":"Feature","properties":{"STATION_NAME":"CW_VoightsCreek_0.62","wqi_2023":70,"wqi_2024":71,"wqi_change":1,"nearby_outfalls":7,"nearby_unconfirmed":1,"mean_risk_score":36.5},"geometry":{"type":"Point","coordinates":[-122.175672000180001,47.083029998972798]}},
{"type":"Feature","properties":{"STATION_NAME":"CW_WilkesonCreek_3.38","wqi_2023":65,"wqi_2024":77,"wqi_change":12,"nearby_outfalls":54,"nearby_unconfirmed":8,"mean_risk_score":18.1},"geometry":{"type":"Point","coordinates":[-122.064205000186007,47.114352998959198]}},
{"type":"Feature","properties":{"STATION_NAME":"GH_ArtondaleCreek_0.30","wqi_2023":41,"wqi_2024":53,"wqi_change":12,"nearby_outfalls":117,"nearby_unconfirmed":2,"mean_risk_score":31.0},"geometry":{"type":"Point","coordinates":[-122.622740999976998,47.300343998981802]}},
{"type":"Feature","properties":{"STATION_NAME":"GH_CrescentCreek_0.81","wqi_2023":45,"wqi_2024":60,"wqi_change":15,"nearby_outfalls":62,"nearby_unconfirmed":8,"mean_risk_score":36.9},"geometry":{"type":"Point","coordinates":[-122.578415999917993,47.357864999130399]}},
{"type":"Feature","properties":{"STATION_NAME":"GH_GoodnoughCreek_0.09","wqi_2023":56,"wqi_2024":73,"wqi_change":17,"nearby_outfalls":53,"nearby_unconfirmed":2,"mean_risk_score":23.5},"geometry":{"type":"Point","coordinates":[-122.624535999833995,47.380940999002803]}},
{"type":"Feature","properties":{"STATION_NAME":"GH_McCormickCreek_0.86","wqi_2023":66,"wqi_2024":70,"wqi_change":4,"nearby_outfalls":47,"nearby_unconfirmed":1,"mean_risk_score":27.3},"geometry":{"type":"Point","coordinates":[-122.617201999860995,47.361825999126197]}},
{"type":"Feature","properties":{"STATION_NAME":"GH_PurdyCreek_0.14","wqi_2023":58,"wqi_2024":65,"wqi_change":7,"nearby_outfalls":66,"nearby_unconfirmed":5,"mean_risk_score":25.5},"geometry":{"type":"Point","coordinates":[-122.625041000150006,47.389210999189601]}},
{"type":"Feature","properties":{"STATION_NAME":"GH_RayNashCreek_0.04","wqi_2023":57,"wqi_2024":63,"wqi_change":6,"nearby_outfalls":81,"nearby_unconfirmed":5,"mean_risk_score":32.6},"geometry":{"type":"Point","coordinates":[-122.659256999939004,47.318712998941898]}},
{"type":"Feature","properties":{"STATION_NAME":"KP_DutchersCreek_0.61","wqi_2023":86,"wqi_2024":62,"wqi_change":-24,"nearby_outfalls":44,"nearby_unconfirmed":0,"mean_risk_score":19.1},"geometry":{"type":"Point","coordinates":[-122.769420000118004,47.317113999160398]}},
{"type":"Feature","properties":{"STATION_NAME":"KP_HugeCreek_0.25","wqi_2023":85,"wqi_2024":82,"wqi_change":-3,"nearby_outfalls":57,"nearby_unconfirmed":8,"mean_risk_score":18.3},"geometry":{"type":"Point","coordinates":[-122.698767000005006,47.388998998978103]}},
{"type":"Feature","properties":{"STATION_NAME":"KP_LittleMinterCreek_0.34","wqi_2023":79,"wqi_2024":71,"wqi_change":-8,"nearby_outfalls":72,"nearby_unconfirmed":8,"mean_risk_score":18.8},"geometry":{"type":"Point","coordinates":[-122.69493099988,47.381458999174399]}},
{"type":"Feature","properties":{"STATION_NAME":"KP_MinterCreek_0.18","wqi_2023":89,"wqi_2024":72,"wqi_change":-17,"nearby_outfalls":90,"nearby_unconfirmed":10,"mean_risk_score":19.2},"geometry":{"type":"Point","coordinates":[-122.702961999967997,47.373250998935603]}},
{"type":"Feature","properties":{"STATION_NAME":"KP_RockyCreek_0.10","wqi_2023":87,"wqi_2024":80,"wqi_change":-7,"nearby_outfalls":20,"nearby_unconfirmed":2,"mean_risk_score":13.5},"geometry":{"type":"Point","coordinates":[-122.781977713984006,47.372565284992099]}},
{"type":"Feature","properties":{"STATION_NAME":"KP_SchoolHouseCreek_0.05","wqi_2023":67,"wqi_2024":68,"wqi_change":1,"nearby_outfalls":52,"nearby_unconfirmed":1,"mean_risk_score":13.9},"geometry":{"type":"Point","coordinates":[-122.751039999948006,47.226711998945099]}},
{"type":"Feature","properties":{"STATION_NAME":"KP_VaughnCreek_0.16","wqi_2023":64,"wqi_2024":64,"wqi_change":0,"nearby_outfalls":54,"nearby_unconfirmed":14,"mean_risk_score":27.7},"geometry":{"type":"Point","coordinates":[-122.761137999810003,47.345024999057799]}},
{"type":"Feature","properties":{"STATION_NAME":"KP_WhitemanCreek_0.06","wqi_2023":45,"wqi_2024":49,"wqi_change":4,"nearby_outfalls":32,"nearby_unconfirmed":3,"mean_risk_score":28.6},"geometry":{"type":"Point","coordinates":[-122.794949999921002,47.219874999107098]}},
{"type":"Feature","properties":{"STATION_NAME":"MP_BallCreek_0.31","wqi_2023":46,"wqi_2024":44,"wqi_change":-2,"nearby_outfalls":26,"nearby_unconfirmed":0,"mean_risk_score":38.6},"geometry":{"type":"Point","coordinates":[-122.219992000003998,47.161713999042703]}},
{"type":"Feature","properties":{"STATION_NAME":"MP_CanyonFallsCreek_0.58","wqi_2023":56,"wqi_2024":67,"wqi_change":11,"nearby_outfalls":14,"nearby_unconfirmed":2,"mean_risk_score":31.6},"geometry":{"type":"Point","coordinates":[-122.222753000066007,47.143457999175197]}},
{"type":"Feature","properties":{"STATION_NAME":"MP_FennelCreek_0.50","wqi_2023":88,"wqi_2024":78,"wqi_change":-10,"nearby_outfalls":25,"nearby_unconfirmed":2,"mean_risk_score":28.0},"geometry":{"type":"Point","coordinates":[-122.216539999961,47.151270998942401]}},
{"type":"Feature","properties":{"STATION_NAME":"MP_HorseHavenCreek_0.73","wqi_2023":67,"wqi_2024":50,"wqi_change":-17,"nearby_outfalls":14,"nearby_unconfirmed":2,"mean_risk_score":47.2},"geometry":{"type":"Point","coordinates":[-122.237842000136993,47.1033479990828]}},
{"type":"Feature","properties":{"STATION_NAME":"MP_VanOgleCreek_0.28","wqi_2023":35,"wqi_2024":24,"wqi_change":-11,"nearby_outfalls":51,"nearby_unconfirmed":4,"mean_risk_score":51.0},"geometry":{"type":"Point","coordinates":[-122.212445999921002,47.186084998972397]}},
{"type":"Feature","properties":{"STATION_NAME":"NI_25MileCreek_0.24","wqi_2023":43,"wqi_2024":43,"wqi_change":0,"nearby_outfalls":31,"nearby_unconfirmed":2,"mean_risk_score":41.5},"geometry":{"type":"Point","coordinates":[-122.258237000031997,46.926009998999099]}},
{"type":"Feature","properties":{"STATION_NAME":"NI_CopperCreek_0.33","wqi_2023":87,"wqi_2024":80,"wqi_change":-7,"nearby_outfalls":4,"nearby_unconfirmed":0,"mean_risk_score":28.9},"geometry":{"type":"Point","coordinates":[-121.961512000010003,46.758048999188098]}},
{"type":"Feature","properties":{"STATION_NAME":"NI_GoatCreek_0.07","wqi_2023":87,"wqi_2024":75,"wqi_change":-12,"nearby_outfalls":7,"nearby_unconfirmed":0,"mean_risk_score":31.6},"geometry":{"type":"Point","coordinates":[-121.941012000138002,46.751745998969398]}},
{"type":"Feature","properties":{"STATION_NAME":"NI_HornCreek_1.29","wqi_2023":23,"wqi_2024":23,"wqi_change":0,"nearby_outfalls":7,"nearby_unconfirmed":0,"mean_risk_score":37.2},"geometry":{"type":"Point","coordinates":[-122.477724999974996,46.904531998986499]}},
{"type":"Feature","properties":{"STATION_NAME":"NI_LacamasCreek_0.45","wqi_2023":31,"wqi_2024":28,"wqi_change":-3,"nearby_outfalls":19,"nearby_unconfirmed":1,"mean_risk_score":29.3},"geometry":{"type":"Point","coordinates":[-122.531559000054997,47.005489999109997]}},
{"type":"Feature","properties":{"STATION_NAME":"NI_LittleMashelRiver_0.31","wqi_2023":25,"wqi_2024":45,"wqi_change":20,"nearby_outfalls":8,"nearby_unconfirmed":1,"mean_risk_score":47.2},"geometry":{"type":"Point","coordinates":[-122.277478000171001,46.853882999120302]}},
{"type":"Feature","properties":{"STATION_NAME":"NI_LynchCreek_0.29","wqi_2023":27,"wqi_2024":36,"wqi_change":9,"nearby_outfalls":26,"nearby_unconfirmed":2,"mean_risk_score":50.6},"geometry":{"type":"Point","coordinates":[-122.274972000174003,46.879466998966898]}},
{"type":"Feature","properties":{"STATION_NAME":"NI_MashelRiver_0.31","wqi_2023":24,"wqi_2024":30,"wqi_change":6,"nearby_outfalls":0,"nearby_unconfirmed":0,"mean_risk_score":null},"geometry":{"type":"Point","coordinates":[-122.331126000067997,46.846920999190303]}},
{"type":"Feature","properties":{"STATION_NAME":"NI_MidwayCreek_0.05","wqi_2023":3,"wqi_2024":4,"wqi_change":1,"nearby_outfalls":15,"nearby_unconfirmed":1,"mean_risk_score":55.0},"geometry":{"type":"Point","coordinates":[-122.247941000043994,46.848829998960298]}},
{"type":"Feature","properties":{"STATION_NAME":"NI_MuckCreek_6.11","wqi_2023":73,"wqi_2024":56,"wqi_change":-17,"nearby_outfalls":12,"nearby_unconfirmed":0,"mean_risk_score":24.7},"geometry":{"type":"Point","coordinates":[-122.543457000139995,47.005517998977297]}},
{"type":"Feature","properties":{"STATION_NAME":"NI_OhopCreek_0.19","wqi_2023":50,"wqi_2024":55,"wqi_change":5,"nearby_outfalls":0,"nearby_unconfirmed":0,"mean_risk_score":null},"geometry":{"type":"Point","coordinates":[-122.369228999965998,46.845964998958898]}},
{"type":"Feature","properties":{"STATION_NAME":"NI_TanwaxCreek_7.45","wqi_2023":49,"wqi_2024":43,"wqi_change":-6,"nearby_outfalls":8,"nearby_unconfirmed":4,"mean_risk_score":50.7},"geometry":{"type":"Point","coordinates":[-122.357611000033003,46.912888999012303]}}
]
}
